[{"OBJECT_NAME":"UMBRA-12","OBJECT_ID":"2026-004J","EPOCH":"2026-03-09T23:28:09.251904","MEAN_MOTION":14.88319852,"ECCENTRICITY":0.00079128,"INCLINATION":97.8019,"RA_OF_ASC_NODE":69.1965,"ARG_OF_PERICENTER":97.182,"MEAN_ANOMALY":263.0297,"EPHEMERIS_TYPE":0,"CLASSIFICATION_TYPE":"U","NORAD_CAT_ID":67371,"ELEMENT_SET_NO":999,"REV_AT_EPOCH":854,"BSTAR":0.00076492026,"MEAN_MOTION_DOT":7.029e-5,"MEAN_MOTION_DDOT":0},{"OBJECT_NAME":"SL-8 DEB","OBJECT_ID":"1977-119C","EPOCH":"2026-03-09T21:52:18.604416","MEAN_MOTION":14.8576686,"ECCENTRICITY":0.00072349,"INCLINATION":74.0224,"RA_OF_ASC_NODE":241.4412,"ARG_OF_PERICENTER":246.6093,"MEAN_ANOMALY":113.4325,"EPHEMERIS_TYPE":0,"CLASSIFICATION_TYPE":"U","NORAD_CAT_ID":10524,"ELEMENT_SET_NO":999,"REV_AT_EPOCH":55161,"BSTAR":0.00083801225,"MEAN_MOTION_DOT":7.258e-5,"MEAN_MOTION_DDOT":0}]
